STRATOSAT-TK 1 (RS52S)  
1 57167U 23091B   25001.09943274  .00054612  00000+0  21376-2 0  9995
2 57167  97.5819  60.9773 0012264 148.6354 211.5617 15.25551567 83584
BRITE-AUSTRIA           
1 39091U 13009F   24366.58657747  .00000908  00000+0  32620-3 0  9997
2 39091  98.3817 188.7842 0010945  35.6986 324.4930 14.36131145620590
DELFI-N3XT              
1 39428U 13066N   24366.49314031  .00014993  00000+0  16651-2 0  9994
2 39428  97.8385 280.3747 0091025 165.2058 195.1852 14.84280922595294
SNAP-3 ALICE            
1 40970U 15058G   24366.42722691  .00046161  00000+0  23826-2 0  9993
2 40970  64.7677  62.0400 0128072 243.1674 115.6305 15.09143321 35400
PROPCUBE 3              
1 40973U 15058K   24366.81524759  .00016103  00000+0  13049-2 0  9993
2 40973  64.7709 109.3389 0179738 247.7802 110.4157 14.88021740 35390
PROMETHEUS 2-3          
1 41855U 16067H   24366.82545373  .00063132  00000+0  20593-2 0  9996
2 41855  98.0849 196.7966 0008182  99.6205 260.5959 15.31528932445825
SPACEBEE-6              
1 43818U 18099BN  25001.18410433  .01206572  00000+0  42928-2 0  9992
2 43818  97.4973  82.2169 0007754 297.5781  62.4701 15.86497495333406
SHIELDS 1               
1 43850U 18104B   24366.77557866  .00041035  00000+0  75666-3 0  9991
2 43850  85.0201 148.0045 0009781  45.8425 314.3634 15.48903673336623
GRBALPHA                
1 47959U 21022AD  25001.13999468  .00101987  00000+0  20857-2 0  9997
2 47959  97.4392 267.4165 0010713 132.5483 227.6672 15.45697971207756
ROBUSTA-1E (ENSO)       
1 58470U 23185J   25001.12316627  .00059760  00000+0  16100-2 0  9995
2 58470  97.3998  73.2450 0008571 299.1586  60.8800 15.37587317 60390
ORBCOMM FM27            
1 25481U 98053G   24366.66612362  .00005211  00000+0  17784-2 0  9995
2 25481  45.0064 341.4458 0001907 312.3523  47.7163 14.37270787373564
GLOBALSTAR M084         
1 38040U 11080A   24366.93280253 -.00000096  00000+0  40869-4 0  9994
2 38040  51.9979 197.6567 0001326  77.5722  69.9784 12.62273122601547
IRIDIUM 119             
1 42959U 17061E   24366.65335499  .00000793  00000+0  27594-3 0  9997
2 42959  86.3964 247.7439 0001800  78.1412 281.9985 14.34216328378481
IRIDIUM 107             
1 42960U 17061F   24366.74215946  .00000170  00000+0  53730-4 0  9994
2 42960  86.3967 247.7249 0001551  92.3664 267.7709 14.34217356378506
IRIDIUM 160             
1 43569U 18061A   24366.79632291  .00000967  00000+0  33825-3 0  9998
2 43569  86.3942 279.2420 0002486  82.1639 277.9839 14.34217436337065
